2023-007M               
1 55259U 23007M   24282.64269566  .00362348  00000+0  27321-2 0  9992
2 55259  97.2935   3.1808 0004637 185.7361 174.3850 15.71414459 97313
2023-007P               
1 55261U 23007P   24282.58786189  .05178948  24159-5  10481-2 0  9995
2 55261  97.2703   7.8617 0008923 270.9531  89.0742 16.31272467 97619
USA 342                 
1 55263U 23008A   24283.26507681  .00000146  00000+0  00000+0 0  9997
2 55263   0.0186 224.6738 0000331  24.6272 248.2909  1.00271750  1222
LDPE-3A                 
1 55264U 23008B   24283.42038503 -.00000284  00000+0  00000+0 0  9992
2 55264   0.6219  88.2794 0000397 167.8847   5.3191  1.00555821  5641
NAVSTAR 82 (USA 343)    
1 55268U 23009A   24283.49988046  .00000019  00000+0  00000+0 0  9995
2 55268  55.0841 172.6878 0002078  69.2900 141.2079  2.00556569 12895
STARLINK-5277           
1 55269U 23010A   24283.36651821 -.00000619  00000+0 -44109-4 0  9993
2 55269  69.9992 266.3697 0002597 263.7489  96.3374 14.98324752 95724
STARLINK-5301           
1 55270U 23010B   24283.37903803 -.00000527  00000+0 -36351-4 0  9994
2 55270  69.9990 266.4136 0002760 271.5183  88.5660 14.98328527 95447
STARLINK-5306           
1 55271U 23010C   24283.37069027 -.00000596  00000+0 -42195-4 0  9995
2 55271  69.9992 266.3851 0002811 269.1924  90.8913 14.98326518 95441
STARLINK-5310           
1 55272U 23010D   24283.38334547  .00000727  00000+0  68753-4 0  9991
2 55272  69.9992 266.0355 0002742 269.6661  90.4184 14.98331990 95451
STARLINK-5291           
1 55273U 23010E   24283.39570823 -.00000047  00000+0  38826-5 0  9997
2 55273  69.9993 266.0754 0002616 264.7347  95.3513 14.98325692 95455
STARLINK-5236           
1 55274U 23010F   24283.29119231  .00000196  00000+0  24257-4 0  9995
2 55274  69.9997 246.6419 0002949 273.5552  86.5269 14.98316470 95923
STARLINK-5260           
1 55275U 23010G   24283.28301157 -.00002303  00000+0 -18531-3 0  9996
2 55275  70.0005 246.6146 0002539 263.0710  97.0161 14.98317757 95926
STARLINK-5261           
1 55276U 23010H   24283.28284158 -.00002178  00000+0 -17482-3 0  9992
2 55276  69.9999 246.6122 0002802 268.4509  91.6329 14.98320361 95918
STARLINK-5299           
1 55277U 23010J   24283.35816663 -.00000402  00000+0 -25876-4 0  9998
2 55277  69.9988 266.3407 0002842 267.0213  93.0621 14.98327203 95444
STARLINK-5289           
1 55278U 23010K   24283.40823220 -.00000757  00000+0 -55709-4 0  9993
2 55278  69.9995 266.1145 0002641 261.7892  98.2967 14.98322667 95440
STARLINK-5323           
1 55279U 23010L   24283.35399619 -.00000930  00000+0 -70149-4 0  9996
2 55279  69.9989 266.3251 0002955 269.0526  91.0294 14.98324525 95446
STARLINK-5331           
1 55280U 23010M   24283.40005146  .00001028  00000+0  93901-4 0  9991
2 55280  69.9996 266.0811 0003084 272.4772  87.6034 14.98336477 95442
STARLINK-5298           
1 55281U 23010N   24283.34981971  .00000902  00000+0  83419-4 0  9997
2 55281  70.0002 266.3090 0002854 263.5797  96.5038 14.98319914 95437
STARLINK-5330           
1 55282U 23010P   24283.39169454 -.00006409  00000+0 -52950-3 0  9992
2 55282  69.9993 266.0532 0002883 271.8393  88.2436 14.98353177 95448
STARLINK-5317           
1 55283U 23010Q   24283.41240660 -.00001039  00000+0 -79332-4 0  9993
2 55283  69.9993 266.1285 0002587 264.1632  95.9232 14.98324230 95444
STARLINK-5337           
1 55284U 23010R   24283.32477407 -.00000267  00000+0 -14623-4 0  9999
2 55284  69.9991 266.2213 0002731 265.4158  94.6689 14.98328792 95431
STARLINK-5332           
1 55285U 23010S   24283.56214937 -.00000279  00000+0 -15621-4 0  9995
2 55285  69.9991 225.6960 0002838 265.8700  94.2134 14.98320780 97336
STARLINK-5338           
1 55286U 23010T   24283.27449106 -.00001329  00000+0 -10363-3 0  9996
2 55286  70.0005 246.5841 0002548 259.5180 100.5692 14.98325286 95914
STARLINK-5341           
1 55287U 23010U   24283.55816341 -.00001323  00000+0 -10312-3 0  9995
2 55287  70.0010 226.0054 0002651 261.5345  98.5513 14.98326128 96444
STARLINK-5311           
1 55288U 23010V   24283.32889504 -.00000883  00000+0 -66217-4 0  9998
2 55288  70.0008 246.3707 0002430 255.7667 104.3222 14.98321738 95926
STARLINK-5320           
1 55289U 23010W   24283.27866338  .00002699  00000+0  23386-3 0  9997
2 55289  69.9995 246.5955 0002669 256.1388 103.9474 14.98333418 95916
STARLINK-5266           
1 55290U 23010X   24283.33707883 -.00000560  00000+0 -39174-4 0  9995
2 55290  70.0006 246.3986 0002477 265.4396  94.6480 14.98322463 95927
STARLINK-5327           
1 55291U 23010Y   24283.28701287 -.00000918  00000+0 -69149-4 0  9994
2 55291  69.9999 246.6235 0002930 259.7238 100.3591 14.98322993 95916
STARLINK-5325           
1 55292U 23010Z   24283.32455409 -.00001942  00000+0 -15503-3 0  9994
2 55292  70.0007 246.3527 0002852 266.8392  93.2441 14.98318838 95922
STARLINK-5287           
1 55293U 23010AA  24283.32871690  .00000590  00000+0  57228-4 0  9996
2 55293  69.9999 246.3687 0002872 272.6293  87.4537 14.98336989 95922
