OBJECT_NAME,OBJECT_ID,EPOCH,MEAN_MOTION,ECCENTRICITY,INCLINATION,RA_OF_ASC_NODE,ARG_OF_PERICENTER,MEAN_ANOMALY,EPHEMERIS_TYPE,CLASSIFICATION_TYPE,NORAD_CAT_ID,ELEMENT_SET_NO,REV_AT_EPOCH,BSTAR,MEAN_MOTION_DOT,MEAN_MOTION_DDOT
2023-007M,2023-007M,2024-10-08T15:25:28.905024,15.71414459,0.0004637,97.2935,3.1808,185.7361,174.3850,0,U,55259,999,9731,2.7321E-03,3.62348E-03,0
2023-007P,2023-007P,2024-10-08T14:06:31.267296,16.31272467,0.0008923,97.2703,7.8617,270.9531,89.0742,0,U,55261,999,9761,1.0481E-03,5.178948E-02,2.4159E-06
USA 342,2023-008A,2024-10-09T06:21:42.636384,1.00271750,0.0000331,0.0186,224.6738,24.6272,248.2909,0,U,55263,999,122,0,1.46E-06,0
LDPE-3A,2023-008B,2024-10-09T10:05:21.266592,1.00555821,0.0000397,0.6219,88.2794,167.8847,5.3191,0,U,55264,999,564,0,-2.84E-06,0
NAVSTAR 82 (USA 343),2023-009A,2024-10-09T11:59:49.671744,2.00556569,0.0002078,55.0841,172.6878,69.2900,141.2079,0,U,55268,999,1289,0,1.9E-07,0
STARLINK-5277,2023-010A,2024-10-09T08:47:47.173344,14.98324752,0.0002597,69.9992,266.3697,263.7489,96.3374,0,U,55269,999,9572,-4.4109E-05,-6.19E-06,0
STARLINK-5301,2023-010B,2024-10-09T09:05:48.885792,14.98328527,0.000276,69.9990,266.4136,271.5183,88.5660,0,U,55270,999,9544,-3.6351E-05,-5.27E-06,0
STARLINK-5306,2023-010C,2024-10-09T08:53:47.639328,14.98326518,0.0002811,69.9992,266.3851,269.1924,90.8913,0,U,55271,999,9544,-4.2195E-05,-5.96E-06,0
STARLINK-5310,2023-010D,2024-10-09T09:12:01.048608,14.98331990,0.0002742,69.9992,266.0355,269.6661,90.4184,0,U,55272,999,9545,6.8753E-05,7.27E-06,0
STARLINK-5291,2023-010E,2024-10-09T09:29:49.191072,14.98325692,0.0002616,69.9993,266.0754,264.7347,95.3513,0,U,55273,999,9545,3.8826E-06,-4.7E-07,0
STARLINK-5236,2023-010F,2024-10-09T06:59:19.015584,14.98316470,0.0002949,69.9997,246.6419,273.5552,86.5269,0,U,55274,999,9592,2.4257E-05,1.96E-06,0
STARLINK-5260,2023-010G,2024-10-09T06:47:32.199648,14.98317757,0.0002539,70.0005,246.6146,263.0710,97.0161,0,U,55275,999,9592,-1.8531E-04,-2.303E-05,0
STARLINK-5261,2023-010H,2024-10-09T06:47:17.512512,14.98320361,0.0002802,69.9999,246.6122,268.4509,91.6329,0,U,55276,999,9591,-1.7482E-04,-2.178E-05,0
STARLINK-5299,2023-010J,2024-10-09T08:35:45.596832,14.98327203,0.0002842,69.9988,266.3407,267.0213,93.0621,0,U,55277,999,9544,-2.5876E-05,-4.02E-06,0
STARLINK-5289,2023-010K,2024-10-09T09:47:51.262080,14.98322667,0.0002641,69.9995,266.1145,261.7892,98.2967,0,U,55278,999,9544,-5.5709E-05,-7.57E-06,0
STARLINK-5323,2023-010L,2024-10-09T08:29:45.270816,14.98324525,0.0002955,69.9989,266.3251,269.0526,91.0294,0,U,55279,999,9544,-7.0149E-05,-9.3E-06,0
STARLINK-5331,2023-010M,2024-10-09T09:36:04.446144,14.98336477,0.0003084,69.9996,266.0811,272.4772,87.6034,0,U,55280,999,9544,9.3901E-05,1.028E-05,0
STARLINK-5298,2023-010N,2024-10-09T08:23:44.422944,14.98319914,0.0002854,70.0002,266.3090,263.5797,96.5038,0,U,55281,999,9543,8.3419E-05,9.02E-06,0
STARLINK-5330,2023-010P,2024-10-09T09:24:02.408256,14.98353177,0.0002883,69.9993,266.0532,271.8393,88.2436,0,U,55282,999,9544,-5.295E-04,-6.409E-05,0
STARLINK-5317,2023-010Q,2024-10-09T09:53:51.930240,14.98324230,0.0002587,69.9993,266.1285,264.1632,95.9232,0,U,55283,999,9544,-7.9332E-05,-1.039E-05,0
STARLINK-5337,2023-010R,2024-10-09T07:47:40.479648,14.98328792,0.0002731,69.9991,266.2213,265.4158,94.6689,0,U,55284,999,9543,-1.4623E-05,-2.67E-06,0
STARLINK-5332,2023-010S,2024-10-09T13:29:29.705568,14.98320780,0.0002838,69.9991,225.6960,265.8700,94.2134,0,U,55285,999,9733,-1.5621E-05,-2.79E-06,0
STARLINK-5338,2023-010T,2024-10-09T06:35:16.027584,14.98325286,0.0002548,70.0005,246.5841,259.5180,100.5692,0,U,55286,999,9591,-1.0363E-04,-1.329E-05,0
STARLINK-5341,2023-010U,2024-10-09T13:23:45.318624,14.98326128,0.0002651,70.0010,226.0054,261.5345,98.5513,0,U,55287,999,9644,-1.0312E-04,-1.323E-05,0
STARLINK-5311,2023-010V,2024-10-09T07:53:36.531456,14.98321738,0.000243,70.0008,246.3707,255.7667,104.3222,0,U,55288,999,9592,-6.6217E-05,-8.83E-06,0
STARLINK-5320,2023-010W,2024-10-09T06:41:16.516032,14.98333418,0.0002669,69.9995,246.5955,256.1388,103.9474,0,U,55289,999,9591,2.3386E-04,2.699E-05,0
STARLINK-5266,2023-010X,2024-10-09T08:05:23.610912,14.98322463,0.0002477,70.0006,246.3986,265.4396,94.6480,0,U,55290,999,9592,-3.9174E-05,-5.6E-06,0
STARLINK-5327,2023-010Y,2024-10-09T06:53:17.911968,14.98322993,0.000293,69.9999,246.6235,259.7238,100.3591,0,U,55291,999,9591,-6.9149E-05,-9.18E-06,0
STARLINK-5325,2023-010Z,2024-10-09T07:47:21.473376,14.98318838,0.0002852,70.0007,246.3527,266.8392,93.2441,0,U,55292,999,9592,-1.5503E-04,-1.942E-05,0
STARLINK-5287,2023-010AA,2024-10-09T07:53:21.140160,14.98336989,0.0002872,69.9999,246.3687,272.6293,87.4537,0,U,55293,999,9592,5.7228E-05,5.9E-06,0
